[
    {
        "Altitude(m)": 605459.0020849077,
        "Argument of Periapsis(deg)": 0.0,
        "Eccentricity": 0.0,
        "Inclination(deg)": 60.0,
        "Latitude(deg)": 27.988127266630126,
        "Longitude(deg)": -77.20142373222652,
        "Mean Anomaly(deg)": 32.7273,
        "RAAN(deg)": 5.0,
        "Satellite Name": "Test1 24",
        "Satellite Number": 24,
        "Semi-Major Axis(m)": 6980739.136638005,
        "Time(s)": 0
    },
    {
        "Altitude(m)": 605535.792816604,
        "Argument of Periapsis(deg)": 0.00010418945913296404,
        "Eccentricity": 0.0,
        "Inclination(deg)": 60.0,
        "Latitude(deg)": 28.501256885968942,
        "Longitude(deg)": -76.84447912987761,
        "Mean Anomaly(deg)": 33.347406145461825,
        "RAAN(deg)": 4.999579950860257,
        "Satellite Name": "Test1 24",
        "Satellite Number": 24,
        "Semi-Major Axis(m)": 6980739.136638005,
        "Time(s)": 10
    }
]